[{"OBJECT_NAME":"OBJECT R","OBJECT_ID":"2023-091R","EPOCH":"2026-03-09T23:14:08.723328","MEAN_MOTION":15.13803604,"ECCENTRICITY":0.00168604,"INCLINATION":97.5196,"RA_OF_ASC_NODE":124.2169,"ARG_OF_PERICENTER":118.5914,"MEAN_ANOMALY":241.7016,"EPHEMERIS_TYPE":0,"CLASSIFICATION_TYPE":"U","NORAD_CAT_ID":57181,"ELEMENT_SET_NO":999,"REV_AT_EPOCH":14867,"BSTAR":0.00029975355,"MEAN_MOTION_DOT":5.364e-5,"MEAN_MOTION_DDOT":0},{"OBJECT_NAME":"OBJECT BE","OBJECT_ID":"2018-099BE","EPOCH":"2026-03-09T15:10:24.322944","MEAN_MOTION":15.09972337,"ECCENTRICITY":0.0006427,"INCLINATION":97.4031,"RA_OF_ASC_NODE":111.7891,"ARG_OF_PERICENTER":340.4925,"MEAN_ANOMALY":19.6058,"EPHEMERIS_TYPE":0,"CLASSIFICATION_TYPE":"U","NORAD_CAT_ID":43810,"ELEMENT_SET_NO":999,"REV_AT_EPOCH":39698,"BSTAR":0.00027209,"MEAN_MOTION_DOT":4.358e-5,"MEAN_MOTION_DDOT":0}]
